JILIN-1 GAOFEN 3A       
1 44312U 19032C   26068.74542089  .00016264  00000+0  55381-3 0  9993
2 44312  44.9746 183.2861 0002618 111.2900 248.8263 15.30271310372592
STARLINK-35686          
1 66407U 25257AD  26068.68215379  .00024647  00000+0  84136-3 0  9994
2 66407  53.1594 216.9578 0000448 125.3337 234.7706 15.30206182 19737
